{
  "type": "FeatureCollection",
  "features": [
    {
      "type": "Feature",
      "geometry": {
        "type": "LineString",
        "coordinates": [
          [
            -86.208125,
            30.47942
          ],
          [
            -86.2025,
            30.48696
          ],
          [
            -86.19875,
            30.49352
          ],
          [
            -86.198,
            30.50008
          ]
        ]
      },
      "properties": {
        "id": 30,
        "externalId": "AQ-CH-001",
        "region": "alaqua_bayou",
        "name": "Main Alaqua Bayou channel",
        "confidence": 74,
        "validationStatus": "visually_reviewed",
        "source": "aerial_image_review: Esri World Imagery export reviewed 2026-07-29; WGS84 bbox [-86.225,30.470,-86.180,30.505]",
        "lastUpdated": "2026-07-29",
        "feature_type": "channel_centerline",
        "field_verified": false,
        "evidence": "Continuous open dark-water channel traced from the bayou mouth, through the main body, into the upper creek transition.",
        "uncertainty": "Centerline is approximate; width and depth are not represented.",
        "source_type": "aerial_image_review",
        "source_reference": "Esri World Imagery export reviewed 2026-07-29; WGS84 bbox [-86.225,30.470,-86.180,30.505]",
        "review_date": "2026-07-29",
        "navigation_use": "not_for_navigation"
      }
    },
    {
      "type": "Feature",
      "geometry": {
        "type": "LineString",
        "coordinates": [
          [
            -86.242083,
            30.500208
          ],
          [
            -86.2425,
            30.496667
          ],
          [
            -86.243542,
            30.495625
          ],
          [
            -86.245625,
            30.4925
          ],
          [
            -86.249167,
            30.487917
          ]
        ]
      },
      "properties": {
        "id": 35,
        "externalId": "BS-CH-001",
        "region": "basin_bayou",
        "name": "Main Basin Bayou channel",
        "confidence": 78,
        "validationStatus": "visually_reviewed",
        "source": "aerial_image_review: Esri World Imagery export reviewed 2026-07-29; WGS84 bbox [-86.255,30.485,-86.230,30.505]",
        "lastUpdated": "2026-07-29",
        "feature_type": "channel_centerline",
        "field_verified": false,
        "evidence": "Traced down the open center of the bayou's single connected body, from the north tributary mouth to the south outlet near the beach.",
        "uncertainty": "Centerline is approximate; width and depth are not represented. This is a single open pond-like body rather than a distinct channel, so the line is more of a navigational reference than a true channel.",
        "source_type": "aerial_image_review",
        "source_reference": "Esri World Imagery export reviewed 2026-07-29; WGS84 bbox [-86.255,30.485,-86.230,30.505]",
        "review_date": "2026-07-29",
        "navigation_use": "not_for_navigation"
      }
    },
    {
      "type": "Feature",
      "geometry": {
        "type": "LineString",
        "coordinates": [
          [
            -86.137031,
            30.42205
          ],
          [
            -86.133437,
            30.421867
          ],
          [
            -86.129844,
            30.42205
          ],
          [
            -86.12625,
            30.422233
          ],
          [
            -86.123125,
            30.422747
          ],
          [
            -86.119844,
            30.424067
          ],
          [
            -86.118,
            30.423449
          ],
          [
            -86.116,
            30.423512
          ],
          [
            -86.114,
            30.423628
          ],
          [
            -86.112027,
            30.423763
          ]
        ]
      },
      "properties": {
        "id": 1,
        "externalId": "JB-CH-001",
        "region": "jolly_bay",
        "name": "Main east-west marsh channel",
        "confidence": 78,
        "validationStatus": "visually_reviewed",
        "source": "aerial_image_review: Esri World Imagery export reviewed 2026-07-24; WGS84 bbox [-86.155,30.405,-86.105,30.449], 1600x1200",
        "lastUpdated": "2026-07-28",
        "feature_type": "channel_centerline",
        "field_verified": false,
        "evidence": "Continuous dark-water channel is clearly visible between marsh islands. Re-traced 2026-07-28 against Esri World Imagery at higher zoom after the prior centerline was found cutting across dry marsh instead of following the visible water.",
        "uncertainty": "Centerline is approximate; width and depth are not represented.",
        "source_type": "aerial_image_review",
        "source_reference": "Esri World Imagery export reviewed 2026-07-24; WGS84 bbox [-86.155,30.405,-86.105,30.449], 1600x1200",
        "review_date": "2026-07-28",
        "navigation_use": "not_for_navigation"
      }
    },
    {
      "type": "Feature",
      "geometry": {
        "type": "LineString",
        "coordinates": [
          [
            -86.118875,
            30.428283
          ],
          [
            -86.118313,
            30.426743
          ],
          [
            -86.118594,
            30.42546
          ],
          [
            -86.119844,
            30.424067
          ]
        ]
      },
      "properties": {
        "id": 2,
        "externalId": "JB-CH-002",
        "region": "jolly_bay",
        "name": "North marsh feeder channel",
        "confidence": 73,
        "validationStatus": "visually_reviewed",
        "source": "aerial_image_review: Esri World Imagery export reviewed 2026-07-24; WGS84 bbox [-86.155,30.405,-86.105,30.449], 1600x1200",
        "lastUpdated": "2026-07-24",
        "feature_type": "channel_centerline",
        "field_verified": false,
        "evidence": "Confined feeder channel is visible from the north marsh drain to the main channel.",
        "uncertainty": "Tidal direction, depth, and navigability are unverified.",
        "source_type": "aerial_image_review",
        "source_reference": "Esri World Imagery export reviewed 2026-07-24; WGS84 bbox [-86.155,30.405,-86.105,30.449], 1600x1200",
        "review_date": "2026-07-24",
        "navigation_use": "not_for_navigation"
      }
    },
    {
      "type": "Feature",
      "geometry": {
        "type": "LineString",
        "coordinates": [
          [
            -86.123281,
            30.42172
          ],
          [
            -86.12425,
            30.420685
          ],
          [
            -86.124781,
            30.42007
          ],
          [
            -86.126406,
            30.418457
          ],
          [
            -86.128563,
            30.416477
          ]
        ]
      },
      "properties": {
        "id": 3,
        "externalId": "JB-CH-003",
        "region": "jolly_bay",
        "name": "Southern marsh feeder channel",
        "confidence": 68,
        "validationStatus": "visually_reviewed",
        "source": "aerial_image_review: Esri World Imagery export reviewed 2026-07-24; WGS84 bbox [-86.155,30.405,-86.105,30.449], 1600x1200",
        "lastUpdated": "2026-07-28",
        "feature_type": "channel_centerline",
        "field_verified": false,
        "evidence": "Dark-water channel is visible through the southern marsh. Re-traced 2026-07-28 against Esri World Imagery at higher zoom after the prior centerline was found cutting across dry marsh instead of following the visible water.",
        "uncertainty": "Line ends where imagery becomes ambiguous; depth is unverified.",
        "source_type": "aerial_image_review",
        "source_reference": "Esri World Imagery export reviewed 2026-07-24; WGS84 bbox [-86.155,30.405,-86.105,30.449], 1600x1200",
        "review_date": "2026-07-28",
        "navigation_use": "not_for_navigation"
      }
    },
    {
      "type": "Feature",
      "geometry": {
        "type": "LineString",
        "coordinates": [
          [
            -86.16663,
            30.46544
          ],
          [
            -86.15875,
            30.46694
          ],
          [
            -86.14938,
            30.46844
          ],
          [
            -86.14075,
            30.46975
          ],
          [
            -86.13438,
            30.47088
          ]
        ]
      },
      "properties": {
        "id": 24,
        "externalId": "LG-CH-001",
        "region": "lagrange_bayou",
        "name": "Main LaGrange Bayou channel",
        "confidence": 75,
        "validationStatus": "visually_reviewed",
        "source": "aerial_image_review: Esri World Imagery export reviewed 2026-07-29; WGS84 bbox [-86.170,30.435,-86.125,30.475]",
        "lastUpdated": "2026-07-29",
        "feature_type": "channel_centerline",
        "field_verified": false,
        "evidence": "Continuous open dark-water channel traced across the full width of LaGrange Bayou, from the western shoreline toward the northeast tributary.",
        "uncertainty": "Centerline is approximate; width and depth are not represented.",
        "source_type": "aerial_image_review",
        "source_reference": "Esri World Imagery export reviewed 2026-07-29; WGS84 bbox [-86.170,30.435,-86.125,30.475]",
        "review_date": "2026-07-29",
        "navigation_use": "not_for_navigation"
      }
    }
  ]
}
