{
  "type": "FeatureCollection",
  "features": [
    {
      "type": "Feature",
      "geometry": {
        "type": "Point",
        "coordinates": [
          -86.123281,
          30.421683
        ]
      },
      "properties": {
        "id": 7,
        "region": "jolly_bay",
        "name": "Bayou Mouth",
        "habitat": "creek_mouth",
        "habitatLabel": "Creek Mouth",
        "species": [],
        "depthTypical": null,
        "bestTide": null,
        "bestWind": null,
        "bestSeason": null,
        "bestLures": [],
        "accessNotes": null,
        "accessType": null,
        "confidence": 63,
        "validationStatus": "visually_reviewed",
        "source": "Aerial image review — Esri World Imagery export, reviewed 2026-07-24 (db/import/2026-07-24-jolly-bay-review/)",
        "notes": "Evidence: Visible transition where the confined marsh channel opens toward broader bay water. | Uncertainty: Hydrodynamics and usable depth require tide/field review.",
        "lastUpdated": "2026-07-24 21:16:00",
        "catchCount": 0
      }
    },
    {
      "type": "Feature",
      "geometry": {
        "type": "Point",
        "coordinates": [
          -86.12125,
          30.424067
        ]
      },
      "properties": {
        "id": 4,
        "region": "jolly_bay",
        "name": "Channel Drop",
        "habitat": "channel",
        "habitatLabel": "Channel",
        "species": [],
        "depthTypical": null,
        "bestTide": null,
        "bestWind": null,
        "bestSeason": null,
        "bestLures": [],
        "accessNotes": null,
        "accessType": null,
        "confidence": 58,
        "validationStatus": "visually_reviewed",
        "source": "Aerial image review — Esri World Imagery export, reviewed 2026-07-24 (db/import/2026-07-24-jolly-bay-review/)",
        "notes": "Evidence: Distinct dark channel boundary against the adjacent marsh shallows. | Uncertainty: Channel edge is visible; an actual drop-off and depth require chart/sonar confirmation.",
        "lastUpdated": "2026-07-24 21:16:00",
        "catchCount": 0
      }
    },
    {
      "type": "Feature",
      "geometry": {
        "type": "Point",
        "coordinates": [
          -86.1125,
          30.424067
        ]
      },
      "properties": {
        "id": 9,
        "region": "jolly_bay",
        "name": "Deep Bend",
        "habitat": "deep_hole",
        "habitatLabel": "Deep Hole/Bend",
        "species": [],
        "depthTypical": null,
        "bestTide": null,
        "bestWind": null,
        "bestSeason": null,
        "bestLures": [],
        "accessNotes": null,
        "accessType": null,
        "confidence": 55,
        "validationStatus": "visually_reviewed",
        "source": "Aerial image review — Esri World Imagery export, reviewed 2026-07-24 (db/import/2026-07-24-jolly-bay-review/)",
        "notes": "Evidence: Pronounced outside bend is visible in the eastern marsh channel. | Uncertainty: The bend is mapped; greater depth is only a hypothesis until measured.",
        "lastUpdated": "2026-07-24 21:16:00",
        "catchCount": 0
      }
    },
    {
      "type": "Feature",
      "geometry": {
        "type": "Point",
        "coordinates": [
          -86.118906,
          30.428283
        ]
      },
      "properties": {
        "id": 5,
        "region": "jolly_bay",
        "name": "Drain",
        "habitat": "creek_mouth",
        "habitatLabel": "Creek Mouth",
        "species": [],
        "depthTypical": null,
        "bestTide": null,
        "bestWind": null,
        "bestSeason": null,
        "bestLures": [],
        "accessNotes": null,
        "accessType": null,
        "confidence": 70,
        "validationStatus": "visually_reviewed",
        "source": "Aerial image review — Esri World Imagery export, reviewed 2026-07-24 (db/import/2026-07-24-jolly-bay-review/)",
        "notes": "Evidence: Clearly visible narrow marsh drain entering the bay/channel system. | Uncertainty: Flow timing, depth, and navigability remain unverified.",
        "lastUpdated": "2026-07-24 21:16:00",
        "catchCount": 0
      }
    },
    {
      "type": "Feature",
      "geometry": null,
      "properties": {
        "id": 3,
        "region": "jolly_bay",
        "name": "Interior Grass",
        "habitat": null,
        "habitatLabel": null,
        "species": [],
        "depthTypical": null,
        "bestTide": null,
        "bestWind": null,
        "bestSeason": null,
        "bestLures": [],
        "accessNotes": null,
        "accessType": null,
        "confidence": 15,
        "validationStatus": "proposed",
        "source": "Aerial image review — Esri World Imagery export, reviewed 2026-07-24 (db/import/2026-07-24-jolly-bay-review/)",
        "notes": "Evidence: Water clarity and image appearance do not resolve submerged grass or sand pockets. | Uncertainty: Keep unlocated until vegetation is visible in another image date or field evidence exists.",
        "lastUpdated": "2026-07-24 21:16:00",
        "catchCount": 0
      }
    },
    {
      "type": "Feature",
      "geometry": {
        "type": "Point",
        "coordinates": [
          -86.128438,
          30.428283
        ]
      },
      "properties": {
        "id": 1,
        "region": "jolly_bay",
        "name": "North Grass Flat",
        "habitat": null,
        "habitatLabel": null,
        "species": [],
        "depthTypical": null,
        "bestTide": null,
        "bestWind": null,
        "bestSeason": null,
        "bestLures": [],
        "accessNotes": null,
        "accessType": null,
        "confidence": 46,
        "validationStatus": "visually_reviewed",
        "source": "Aerial image review — Esri World Imagery export, reviewed 2026-07-24 (db/import/2026-07-24-jolly-bay-review/)",
        "notes": "Evidence: Aerial tonal transition beside the north shoreline; submerged grass is not resolved. | Uncertainty: Flat edge is visible, but vegetation and depth are unverified.",
        "lastUpdated": "2026-07-24 21:16:00",
        "catchCount": 0
      }
    },
    {
      "type": "Feature",
      "geometry": null,
      "properties": {
        "id": 2,
        "region": "jolly_bay",
        "name": "Oyster Edge",
        "habitat": null,
        "habitatLabel": null,
        "species": [],
        "depthTypical": null,
        "bestTide": null,
        "bestWind": null,
        "bestSeason": null,
        "bestLures": [],
        "accessNotes": null,
        "accessType": null,
        "confidence": 15,
        "validationStatus": "proposed",
        "source": "Aerial image review — Esri World Imagery export, reviewed 2026-07-24 (db/import/2026-07-24-jolly-bay-review/)",
        "notes": "Evidence: No defensible oyster or hard-bottom signature in the reviewed aerial. | Uncertainty: Requires clearer imagery, side-scan/sonar, or on-water review before placement.",
        "lastUpdated": "2026-07-24 21:16:00",
        "catchCount": 0
      }
    },
    {
      "type": "Feature",
      "geometry": null,
      "properties": {
        "id": 8,
        "region": "jolly_bay",
        "name": "Oyster Point",
        "habitat": null,
        "habitatLabel": null,
        "species": [],
        "depthTypical": null,
        "bestTide": null,
        "bestWind": null,
        "bestSeason": null,
        "bestLures": [],
        "accessNotes": null,
        "accessType": null,
        "confidence": 15,
        "validationStatus": "proposed",
        "source": "Aerial image review — Esri World Imagery export, reviewed 2026-07-24 (db/import/2026-07-24-jolly-bay-review/)",
        "notes": "Evidence: No point can be classified as oyster or hard bottom from this image alone. | Uncertainty: Requires clearer low-water imagery, sonar, or field inspection before placement.",
        "lastUpdated": "2026-07-24 21:16:00",
        "catchCount": 0
      }
    },
    {
      "type": "Feature",
      "geometry": {
        "type": "Point",
        "coordinates": [
          -86.130531,
          30.422307
        ]
      },
      "properties": {
        "id": 6,
        "region": "jolly_bay",
        "name": "South Point",
        "habitat": "point",
        "habitatLabel": "Point",
        "species": [],
        "depthTypical": null,
        "bestTide": null,
        "bestWind": null,
        "bestSeason": null,
        "bestLures": [],
        "accessNotes": null,
        "accessType": null,
        "confidence": 66,
        "validationStatus": "visually_reviewed",
        "source": "Aerial image review — Esri World Imagery export, reviewed 2026-07-24 (db/import/2026-07-24-jolly-bay-review/)",
        "notes": "Evidence: Clearly visible point at the west end of a marsh island with adjacent color transition. | Uncertainty: Bottom type and water depth are unverified.",
        "lastUpdated": "2026-07-24 21:16:00",
        "catchCount": 0
      }
    }
  ]
}
