{
  "type": "FeatureCollection",
  "features": [
    {
      "type": "Feature",
      "geometry": {
        "type": "Polygon",
        "coordinates": [
          [
            [
              -86.21188,
              30.48532
            ],
            [
              -86.20325,
              30.48532
            ],
            [
              -86.20325,
              30.47942
            ],
            [
              -86.21188,
              30.47942
            ],
            [
              -86.21188,
              30.48532
            ]
          ]
        ]
      },
      "properties": {
        "id": 31,
        "externalId": "AQ-HZ-001",
        "region": "alaqua_bayou",
        "name": "Bayou-mouth narrows caution",
        "confidence": 60,
        "validationStatus": "visually_reviewed",
        "source": "aerial_image_review: Esri World Imagery export reviewed 2026-07-29; WGS84 bbox [-86.225,30.470,-86.180,30.505]",
        "lastUpdated": "2026-07-29",
        "feature_type": "shallow_water_caution",
        "field_verified": false,
        "evidence": "The bayou visibly constricts between the western sand point and the eastern shore before opening to the wider bay.",
        "uncertainty": "Visual caution only; not a charted hazard and not for navigation.",
        "source_type": "aerial_image_review",
        "source_reference": "Esri World Imagery export reviewed 2026-07-29; WGS84 bbox [-86.225,30.470,-86.180,30.505]",
        "review_date": "2026-07-29",
        "navigation_use": "not_for_navigation"
      }
    },
    {
      "type": "Feature",
      "geometry": {
        "type": "Polygon",
        "coordinates": [
          [
            [
              -86.24667,
              30.49708
            ],
            [
              -86.24,
              30.49708
            ],
            [
              -86.24,
              30.495
            ],
            [
              -86.24667,
              30.495
            ],
            [
              -86.24667,
              30.49708
            ]
          ]
        ]
      },
      "properties": {
        "id": 36,
        "externalId": "BS-HZ-001",
        "region": "basin_bayou",
        "name": "Mid-bayou waist constriction caution",
        "confidence": 58,
        "validationStatus": "visually_reviewed",
        "source": "aerial_image_review: Esri World Imagery export reviewed 2026-07-29; WGS84 bbox [-86.255,30.485,-86.230,30.505]",
        "lastUpdated": "2026-07-29",
        "feature_type": "shallow_water_caution",
        "field_verified": false,
        "evidence": "The bayou visibly pinches to roughly half its open width at this waist, between the east and west points.",
        "uncertainty": "Visual caution only; not a charted hazard and not for navigation.",
        "source_type": "aerial_image_review",
        "source_reference": "Esri World Imagery export reviewed 2026-07-29; WGS84 bbox [-86.255,30.485,-86.230,30.505]",
        "review_date": "2026-07-29",
        "navigation_use": "not_for_navigation"
      }
    },
    {
      "type": "Feature",
      "geometry": {
        "type": "Polygon",
        "coordinates": [
          [
            [
              -86.153487,
              30.434423
            ],
            [
              -86.152346,
              30.433911
            ],
            [
              -86.166929,
              30.401411
            ],
            [
              -86.168071,
              30.401923
            ],
            [
              -86.153487,
              30.434423
            ]
          ]
        ]
      },
      "properties": {
        "id": 41,
        "externalId": "BR-HZ-001",
        "region": "bridge_331",
        "name": "331 causeway riprap corridor",
        "confidence": 65,
        "validationStatus": "visually_reviewed",
        "source": "aerial_image_review: Esri World Imagery export reviewed 2026-07-30; WGS84 bbox [-86.185,30.400,-86.135,30.435]",
        "lastUpdated": "2026-07-30",
        "feature_type": "shallow_water_caution",
        "field_verified": false,
        "evidence": "Riprap and pilings line the causeway for its full length, visible as a distinct pale fringe against open water on both sides.",
        "uncertainty": "Visual caution only; not a charted hazard and not for navigation. Exact riprap extent underwater is unverified.",
        "source_type": "aerial_image_review",
        "source_reference": "Esri World Imagery export reviewed 2026-07-30; WGS84 bbox [-86.185,30.400,-86.135,30.435]",
        "review_date": "2026-07-30",
        "navigation_use": "not_for_navigation"
      }
    },
    {
      "type": "Feature",
      "geometry": {
        "type": "Polygon",
        "coordinates": [
          [
            [
              -86.129,
              30.406
            ],
            [
              -86.123,
              30.406
            ],
            [
              -86.123,
              30.404
            ],
            [
              -86.129,
              30.404
            ],
            [
              -86.129,
              30.406
            ]
          ]
        ]
      },
      "properties": {
        "id": 18,
        "externalId": "JB-HZ-003",
        "region": "jolly_bay",
        "name": "Foul ground at river/bay confluence",
        "confidence": 65,
        "validationStatus": "visually_reviewed",
        "source": "noaa_chart_review: NOAA Chart Display Service (NCDS) WMS (gis.charttools.noaa.gov, MCS/NOAAChartDisplay), sublayers 0-12, reviewed 2026-07-27",
        "lastUpdated": "2026-07-27",
        "feature_type": "charted_foul_ground",
        "field_verified": false,
        "evidence": "NOAA chart symbology marks charted \"Foul\" ground (obstruction/debris) directly at the confluence where the Choctawhatchee River South Mouth and the Jolly Bay complex open into Choctawhatchee Bay near the ICW.",
        "uncertainty": "Polygon bounds are a rough box around the charted foul-ground symbol cluster read from a rendered WMS tile, not a precise charted extent.",
        "source_type": "noaa_chart_review",
        "source_reference": "NOAA Chart Display Service (NCDS) WMS (gis.charttools.noaa.gov, MCS/NOAAChartDisplay), sublayers 0-12, reviewed 2026-07-27",
        "review_date": "2026-07-27",
        "navigation_use": "not_for_navigation"
      }
    },
    {
      "type": "Feature",
      "geometry": {
        "type": "Polygon",
        "coordinates": [
          [
            [
              -86.125,
              30.4237
            ],
            [
              -86.121094,
              30.4248
            ],
            [
              -86.119531,
              30.423333
            ],
            [
              -86.122188,
              30.420767
            ],
            [
              -86.124688,
              30.421133
            ],
            [
              -86.125,
              30.4237
            ]
          ]
        ]
      },
      "properties": {
        "id": 14,
        "externalId": "JB-HZ-002",
        "region": "jolly_bay",
        "name": "Marsh-channel constriction caution",
        "confidence": 62,
        "validationStatus": "visually_reviewed",
        "source": "aerial_image_review: Esri World Imagery export reviewed 2026-07-24; WGS84 bbox [-86.155,30.405,-86.105,30.449], 1600x1200",
        "lastUpdated": "2026-07-24",
        "feature_type": "channel_constriction",
        "field_verified": false,
        "evidence": "Channel narrows and bends around marsh points in this area.",
        "uncertainty": "Visual caution only; clearance and depth require current chart and field verification.",
        "source_type": "aerial_image_review",
        "source_reference": "Esri World Imagery export reviewed 2026-07-24; WGS84 bbox [-86.155,30.405,-86.105,30.449], 1600x1200",
        "review_date": "2026-07-24",
        "navigation_use": "not_for_navigation"
      }
    },
    {
      "type": "Feature",
      "geometry": {
        "type": "Polygon",
        "coordinates": [
          [
            [
              -86.140375,
              30.424983
            ],
            [
              -86.135156,
              30.42458
            ],
            [
              -86.133594,
              30.421133
            ],
            [
              -86.134938,
              30.417833
            ],
            [
              -86.138594,
              30.418273
            ],
            [
              -86.140781,
              30.421573
            ],
            [
              -86.140375,
              30.424983
            ]
          ]
        ]
      },
      "properties": {
        "id": 13,
        "externalId": "JB-HZ-001",
        "region": "jolly_bay",
        "name": "Western shoal complex caution",
        "confidence": 65,
        "validationStatus": "visually_reviewed",
        "source": "aerial_image_review: Esri World Imagery export reviewed 2026-07-24; WGS84 bbox [-86.155,30.405,-86.105,30.449], 1600x1200",
        "lastUpdated": "2026-07-24",
        "feature_type": "shallow_water_caution",
        "field_verified": false,
        "evidence": "Multiple pale shoal signatures and marsh-island margins are visible.",
        "uncertainty": "Visual caution only; not a charted hazard and not for navigation.",
        "source_type": "aerial_image_review",
        "source_reference": "Esri World Imagery export reviewed 2026-07-24; WGS84 bbox [-86.155,30.405,-86.105,30.449], 1600x1200",
        "review_date": "2026-07-24",
        "navigation_use": "not_for_navigation"
      }
    },
    {
      "type": "Feature",
      "geometry": {
        "type": "Polygon",
        "coordinates": [
          [
            [
              -86.149,
              30.4585
            ],
            [
              -86.144,
              30.4585
            ],
            [
              -86.144,
              30.4545
            ],
            [
              -86.149,
              30.4545
            ],
            [
              -86.149,
              30.4585
            ]
          ]
        ]
      },
      "properties": {
        "id": 25,
        "externalId": "LG-HZ-001",
        "region": "lagrange_bayou",
        "name": "Peninsula narrows constriction",
        "confidence": 60,
        "validationStatus": "visually_reviewed",
        "source": "aerial_image_review: Esri World Imagery export reviewed 2026-07-29; WGS84 bbox [-86.170,30.435,-86.125,30.475]",
        "lastUpdated": "2026-07-29",
        "feature_type": "shallow_water_caution",
        "field_verified": false,
        "evidence": "The channel visibly narrows to a fraction of its open-bayou width here, funneling past the tip of the central peninsula before reaching the Mallet Bayou confluence.",
        "uncertainty": "Visual caution only; not a charted hazard and not for navigation.",
        "source_type": "aerial_image_review",
        "source_reference": "Esri World Imagery export reviewed 2026-07-29; WGS84 bbox [-86.170,30.435,-86.125,30.475]",
        "review_date": "2026-07-29",
        "navigation_use": "not_for_navigation"
      }
    }
  ]
}
