{
  "type": "FeatureCollection",
  "features": [
    {
      "type": "Feature",
      "geometry": {
        "type": "Point",
        "coordinates": [
          -86.20381,
          30.48367
        ]
      },
      "properties": {
        "id": 29,
        "externalId": "AQ-PT-002",
        "region": "alaqua_bayou",
        "name": "Eastern narrows point",
        "confidence": 74,
        "validationStatus": "visually_reviewed",
        "source": "aerial_image_review: Esri World Imagery export reviewed 2026-07-29; WGS84 bbox [-86.225,30.470,-86.180,30.505]",
        "lastUpdated": "2026-07-29",
        "feature_type": "shoreline_point",
        "field_verified": false,
        "evidence": "Clear point of land opposite the western sand point, forming the bayou's narrows.",
        "uncertainty": "Depth and bottom composition off the point are unverified.",
        "source_type": "aerial_image_review",
        "source_reference": "Esri World Imagery export reviewed 2026-07-29; WGS84 bbox [-86.225,30.470,-86.180,30.505]",
        "review_date": "2026-07-29",
        "navigation_use": "not_for_navigation"
      }
    },
    {
      "type": "Feature",
      "geometry": {
        "type": "Point",
        "coordinates": [
          -86.213,
          30.48482
        ]
      },
      "properties": {
        "id": 28,
        "externalId": "AQ-PT-001",
        "region": "alaqua_bayou",
        "name": "Western sand point",
        "confidence": 75,
        "validationStatus": "visually_reviewed",
        "source": "aerial_image_review: Esri World Imagery export reviewed 2026-07-29; WGS84 bbox [-86.225,30.470,-86.180,30.505]",
        "lastUpdated": "2026-07-29",
        "feature_type": "shoreline_point",
        "field_verified": false,
        "evidence": "Prominent sand spit/point clearly visible on the west shore at the bayou narrows — matches App.jsx's description of oyster bars at the mouth being the prime spot.",
        "uncertainty": "Depth and bottom composition off the point are unverified; the pale area may be an exposed dune rather than a submerged shoal.",
        "source_type": "aerial_image_review",
        "source_reference": "Esri World Imagery export reviewed 2026-07-29; WGS84 bbox [-86.225,30.470,-86.180,30.505]",
        "review_date": "2026-07-29",
        "navigation_use": "not_for_navigation"
      }
    },
    {
      "type": "Feature",
      "geometry": {
        "type": "Point",
        "coordinates": [
          -86.239375,
          30.49625
        ]
      },
      "properties": {
        "id": 33,
        "externalId": "BS-PT-001",
        "region": "basin_bayou",
        "name": "East waist point",
        "confidence": 74,
        "validationStatus": "visually_reviewed",
        "source": "aerial_image_review: Esri World Imagery export reviewed 2026-07-29; WGS84 bbox [-86.255,30.485,-86.230,30.505]",
        "lastUpdated": "2026-07-29",
        "feature_type": "shoreline_point",
        "field_verified": false,
        "evidence": "Clear point of land where the bayou narrows to its mid-point 'waist'.",
        "uncertainty": "Depth and bottom composition off the point are unverified.",
        "source_type": "aerial_image_review",
        "source_reference": "Esri World Imagery export reviewed 2026-07-29; WGS84 bbox [-86.255,30.485,-86.230,30.505]",
        "review_date": "2026-07-29",
        "navigation_use": "not_for_navigation"
      }
    },
    {
      "type": "Feature",
      "geometry": {
        "type": "Point",
        "coordinates": [
          -86.246875,
          30.495
        ]
      },
      "properties": {
        "id": 34,
        "externalId": "BS-PT-002",
        "region": "basin_bayou",
        "name": "West waist point",
        "confidence": 66,
        "validationStatus": "visually_reviewed",
        "source": "aerial_image_review: Esri World Imagery export reviewed 2026-07-29; WGS84 bbox [-86.255,30.485,-86.230,30.505]",
        "lastUpdated": "2026-07-29",
        "feature_type": "shoreline_point",
        "field_verified": false,
        "evidence": "Subtle point opposite the east waist point, on the west shore where the bayou narrows.",
        "uncertainty": "Point is less pronounced than its eastern counterpart; exact tip position is approximate.",
        "source_type": "aerial_image_review",
        "source_reference": "Esri World Imagery export reviewed 2026-07-29; WGS84 bbox [-86.255,30.485,-86.230,30.505]",
        "review_date": "2026-07-29",
        "navigation_use": "not_for_navigation"
      }
    },
    {
      "type": "Feature",
      "geometry": {
        "type": "Point",
        "coordinates": [
          -86.124844,
          30.42315
        ]
      },
      "properties": {
        "id": 8,
        "externalId": "JB-PT-002",
        "region": "jolly_bay",
        "name": "Central north-bank point",
        "confidence": 72,
        "validationStatus": "visually_reviewed",
        "source": "aerial_image_review: Esri World Imagery export reviewed 2026-07-24; WGS84 bbox [-86.155,30.405,-86.105,30.449], 1600x1200",
        "lastUpdated": "2026-07-24",
        "feature_type": "shoreline_point",
        "field_verified": false,
        "evidence": "Visible point constricts the north side of the main channel.",
        "uncertainty": "Exact fishable edge changes with water level.",
        "source_type": "aerial_image_review",
        "source_reference": "Esri World Imagery export reviewed 2026-07-24; WGS84 bbox [-86.155,30.405,-86.105,30.449], 1600x1200",
        "review_date": "2026-07-24",
        "navigation_use": "not_for_navigation"
      }
    },
    {
      "type": "Feature",
      "geometry": {
        "type": "Point",
        "coordinates": [
          -86.113188,
          30.4237
        ]
      },
      "properties": {
        "id": 9,
        "externalId": "JB-PT-003",
        "region": "jolly_bay",
        "name": "Eastern bend point",
        "confidence": 76,
        "validationStatus": "visually_reviewed",
        "source": "aerial_image_review: Esri World Imagery export reviewed 2026-07-24; WGS84 bbox [-86.155,30.405,-86.105,30.449], 1600x1200",
        "lastUpdated": "2026-07-24",
        "feature_type": "shoreline_point",
        "field_verified": false,
        "evidence": "Distinct inside point at a pronounced channel bend.",
        "uncertainty": "Adjacent depth is not known.",
        "source_type": "aerial_image_review",
        "source_reference": "Esri World Imagery export reviewed 2026-07-24; WGS84 bbox [-86.155,30.405,-86.105,30.449], 1600x1200",
        "review_date": "2026-07-24",
        "navigation_use": "not_for_navigation"
      }
    },
    {
      "type": "Feature",
      "geometry": {
        "type": "Point",
        "coordinates": [
          -86.130531,
          30.422307
        ]
      },
      "properties": {
        "id": 7,
        "externalId": "JB-PT-001",
        "region": "jolly_bay",
        "name": "Western marsh-island point",
        "confidence": 79,
        "validationStatus": "visually_reviewed",
        "source": "aerial_image_review: Esri World Imagery export reviewed 2026-07-24; WGS84 bbox [-86.155,30.405,-86.105,30.449], 1600x1200",
        "lastUpdated": "2026-07-24",
        "feature_type": "shoreline_point",
        "field_verified": false,
        "evidence": "Distinct west-facing marsh point beside the main channel.",
        "uncertainty": "Submerged extension and bottom type are unknown.",
        "source_type": "aerial_image_review",
        "source_reference": "Esri World Imagery export reviewed 2026-07-24; WGS84 bbox [-86.155,30.405,-86.105,30.449], 1600x1200",
        "review_date": "2026-07-24",
        "navigation_use": "not_for_navigation"
      }
    },
    {
      "type": "Feature",
      "geometry": {
        "type": "Point",
        "coordinates": [
          -86.1375,
          30.4674
        ]
      },
      "properties": {
        "id": 23,
        "externalId": "LG-PT-002",
        "region": "lagrange_bayou",
        "name": "Northeast bank point",
        "confidence": 74,
        "validationStatus": "visually_reviewed",
        "source": "aerial_image_review: Esri World Imagery export reviewed 2026-07-29; WGS84 bbox [-86.150,30.455,-86.130,30.472]",
        "lastUpdated": "2026-07-29",
        "feature_type": "shoreline_point",
        "field_verified": false,
        "evidence": "Clear point of land at a shoreline bend on the north side of the bayou.",
        "uncertainty": "Depth and bottom composition off the point are unverified.",
        "source_type": "aerial_image_review",
        "source_reference": "Esri World Imagery export reviewed 2026-07-29; WGS84 bbox [-86.150,30.455,-86.130,30.472]",
        "review_date": "2026-07-29",
        "navigation_use": "not_for_navigation"
      }
    },
    {
      "type": "Feature",
      "geometry": {
        "type": "Point",
        "coordinates": [
          -86.1434,
          30.4644
        ]
      },
      "properties": {
        "id": 22,
        "externalId": "LG-PT-001",
        "region": "lagrange_bayou",
        "name": "Western bank point",
        "confidence": 76,
        "validationStatus": "visually_reviewed",
        "source": "aerial_image_review: Esri World Imagery export reviewed 2026-07-29; WGS84 bbox [-86.150,30.455,-86.130,30.472]",
        "lastUpdated": "2026-07-29",
        "feature_type": "shoreline_point",
        "field_verified": false,
        "evidence": "Sandy point clearly visible jutting into the bayou on the north shore.",
        "uncertainty": "Depth and bottom composition off the point are unverified.",
        "source_type": "aerial_image_review",
        "source_reference": "Esri World Imagery export reviewed 2026-07-29; WGS84 bbox [-86.150,30.455,-86.130,30.472]",
        "review_date": "2026-07-29",
        "navigation_use": "not_for_navigation"
      }
    }
  ]
}
